start=new Date('2021-12-13T00:00:00.000Z').valueOf();
sats=[{"MEAN_MOTION":"15.06396843","MEAN_ANOMALY":"294.1461","MEAN_ELEMENT_THEORY":"SGP4","BSTAR":"0.00007741400000","DECAY_DATE":null,"RCS_SIZE":"LARGE","PERIOD":"95.592","NORAD_CAT_ID":"48573","CENTER_NAME":"EARTH","REV_AT_EPOCH":"3191","RA_OF_ASC_NODE":"239.7919","FILE":"3238376","ELEMENT_SET_NO":"999","TLE_LINE1":"1 48573U 21041W   21346.92697163  .00000871  00000-0  77414-4 0  9997","SEMIMAJOR_AXIS":"6925.358","GP_ID":"191589249","TLE_LINE2":"2 48573  53.0537 239.7919 0002557  65.9795 294.1461 15.06396843 31918","CLASSIFICATION_TYPE":"U","MEAN_MOTION_DDOT":"0.0000000000000","OBJECT_NAME":"STARLINK-2224","OBJECT_TYPE":"PAYLOAD","LAUNCH_DATE":"2021-05-15","ECCENTRICITY":"0.00025570","COUNTRY_CODE":"US","PERIAPSIS":"545.452","MEAN_MOTION_DOT":"0.00000871","EPHEMERIS_TYPE":"0","INCLINATION":"53.0537","SITE":"AFETR","ARG_OF_PERICENTER":"65.9795","APOAPSIS":"548.994","REF_FRAME":"TEME","OBJECT_ID":"2021-041W","EPOCH":"2021-12-12T22:14:50.348832","TIME_SYSTEM":"UTC"},{"GP_ID":"191588341","SEMIMAJOR_AXIS":"6925.403","TLE_LINE1":"1 48574U 21041X   21346.91668981 -.00011954  00000-0 -78526-3 0  9993","ELEMENT_SET_NO":"999","TLE_LINE2":"2 48574  53.0440 209.8801 0002605  75.1290  79.3077 15.06382324  3573","CLASSIFICATION_TYPE":"U","OBJECT_NAME":"STARLINK-2225","MEAN_MOTION_DDOT":"0.0000000000000","OBJECT_TYPE":"PAYLOAD","MEAN_ANOMALY":"79.3077","MEAN_MOTION":"15.06382324","REV_AT_EPOCH":"357","FILE":"3238376","RA_OF_ASC_NODE":"209.8801","DECAY_DATE":null,"RCS_SIZE":"LARGE","PERIOD":"95.593","BSTAR":"-0.00078526000000","MEAN_ELEMENT_THEORY":"SGP4","CENTER_NAME":"EARTH","NORAD_CAT_ID":"48574","INCLINATION":"53.0440","EPHEMERIS_TYPE":"0","ARG_OF_PERICENTER":"75.1290","SITE":"AFETR","EPOCH":"2021-12-12T22:00:01.999584","TIME_SYSTEM":"UTC","APOAPSIS":"549.072","OBJECT_ID":"2021-041X","REF_FRAME":"TEME","ECCENTRICITY":"0.00026050","LAUNCH_DATE":"2021-05-15","MEAN_MOTION_DOT":"-0.00011954","PERIAPSIS":"545.464","COUNTRY_CODE":"US"},{"ECCENTRICITY":"0.00030540","LAUNCH_DATE":"2021-05-15","PERIAPSIS":"448.987","MEAN_MOTION_DOT":"-0.01071718","COUNTRY_CODE":"US","ARG_OF_PERICENTER":"326.7487","SITE":"AFETR","EPHEMERIS_TYPE":"0","INCLINATION":"53.0546","TIME_SYSTEM":"UTC","EPOCH":"2021-12-12T22:00:01.999584","REF_FRAME":"TEME","OBJECT_ID":"2021-041Y","APOAPSIS":"453.159","MEAN_ANOMALY":"125.5516","MEAN_MOTION":"15.38322001","RA_OF_ASC_NODE":"201.2632","FILE":"3238376","REV_AT_EPOCH":"363","NORAD_CAT_ID":"48575","CENTER_NAME":"EARTH","BSTAR":"-0.03043000000000","MEAN_ELEMENT_THEORY":"SGP4","RCS_SIZE":"LARGE","DECAY_DATE":null,"PERIOD":"93.608","CLASSIFICATION_TYPE":"U","TLE_LINE2":"2 48575  53.0546 201.2632 0003054 326.7487 125.5516 15.38322001  3631","ELEMENT_SET_NO":"999","TLE_LINE1":"1 48575U 21041Y   21346.91668981 -.01071718  00000-0 -30430-1 0  9999","SEMIMAJOR_AXIS":"6829.208","GP_ID":"191588525","OBJECT_TYPE":"PAYLOAD","MEAN_MOTION_DDOT":"0.0000000000000","OBJECT_NAME":"STARLINK-2227"},{"ELEMENT_SET_NO":"999","TLE_LINE1":"1 48576U 21041Z   21346.91668981 -.00017473  00000-0 -11568-2 0  9999","SEMIMAJOR_AXIS":"6925.335","GP_ID":"191588703","CLASSIFICATION_TYPE":"U","TLE_LINE2":"2 48576  53.0545 214.7522 0002006  21.2444   0.3713 15.06404452  3572","OBJECT_NAME":"STARLINK-2228","MEAN_MOTION_DDOT":"0.0000000000000","OBJECT_TYPE":"PAYLOAD","MEAN_MOTION":"15.06404452","MEAN_ANOMALY":"0.3713","BSTAR":"-0.00115680000000","MEAN_ELEMENT_THEORY":"SGP4","DECAY_DATE":null,"PERIOD":"95.592","RCS_SIZE":"LARGE","NORAD_CAT_ID":"48576","CENTER_NAME":"EARTH","REV_AT_EPOCH":"357","RA_OF_ASC_NODE":"214.7522","FILE":"3238376","EPHEMERIS_TYPE":"0","INCLINATION":"53.0545","SITE":"AFETR","ARG_OF_PERICENTER":"21.2444","APOAPSIS":"548.589","REF_FRAME":"TEME","OBJECT_ID":"2021-041Z","EPOCH":"2021-12-12T22:00:01.999584","TIME_SYSTEM":"UTC","LAUNCH_DATE":"2021-05-15","ECCENTRICITY":"0.00020060","COUNTRY_CODE":"US","PERIAPSIS":"545.811","MEAN_MOTION_DOT":"-0.00017473"},{"GP_ID":"191588887","TLE_LINE1":"1 48577U 21041AA  21346.91960059  .00000972  00000-0  84173-4 0  9999","ELEMENT_SET_NO":"999","SEMIMAJOR_AXIS":"6925.333","CLASSIFICATION_TYPE":"U","TLE_LINE2":"2 48577  53.0536 239.8307 0002533  68.2676 291.8583 15.06405179 31913","MEAN_MOTION_DDOT":"0.0000000000000","OBJECT_NAME":"STARLINK-2231","OBJECT_TYPE":"PAYLOAD","MEAN_ANOMALY":"291.8583","MEAN_MOTION":"15.06405179","REV_AT_EPOCH":"3191","FILE":"3238376","RA_OF_ASC_NODE":"239.8307","DECAY_DATE":null,"RCS_SIZE":"LARGE","PERIOD":"95.592","MEAN_ELEMENT_THEORY":"SGP4","BSTAR":"0.00008417300000","CENTER_NAME":"EARTH","NORAD_CAT_ID":"48577","INCLINATION":"53.0536","EPHEMERIS_TYPE":"0","ARG_OF_PERICENTER":"68.2676","SITE":"AFETR","EPOCH":"2021-12-12T22:04:13.490976","TIME_SYSTEM":"UTC","APOAPSIS":"548.952","OBJECT_ID":"2021-041AA","REF_FRAME":"TEME","ECCENTRICITY":"0.00025330","LAUNCH_DATE":"2021-05-15","MEAN_MOTION_DOT":"0.00000972","PERIAPSIS":"545.443","COUNTRY_CODE":"US"},{"COUNTRY_CODE":"US","PERIAPSIS":"545.446","MEAN_MOTION_DOT":"0.00000932","LAUNCH_DATE":"2021-05-15","ECCENTRICITY":"0.00025300","REF_FRAME":"TEME","OBJECT_ID":"2021-041AB","APOAPSIS":"548.950","TIME_SYSTEM":"UTC","EPOCH":"2021-12-12T21:36:19.246464","SITE":"AFETR","ARG_OF_PERICENTER":"63.9949","EPHEMERIS_TYPE":"0","INCLINATION":"53.0559","NORAD_CAT_ID":"48578","CENTER_NAME":"EARTH","BSTAR":"0.00008148200000","MEAN_ELEMENT_THEORY":"SGP4","DECAY_DATE":null,"RCS_SIZE":"LARGE","PERIOD":"95.592","RA_OF_ASC_NODE":"239.9124","FILE":"3238299","REV_AT_EPOCH":"3236","MEAN_MOTION":"15.06405089","MEAN_ANOMALY":"296.1301","OBJECT_TYPE":"PAYLOAD","OBJECT_NAME":"STARLINK-2232","MEAN_MOTION_DDOT":"0.0000000000000","TLE_LINE2":"2 48578  53.0559 239.9124 0002530  63.9949 296.1301 15.06405089 32365","CLASSIFICATION_TYPE":"U","TLE_LINE1":"1 48578U 21041AB  21346.90022276  .00000932  00000-0  81482-4 0  9995","ELEMENT_SET_NO":"999","SEMIMAJOR_AXIS":"6925.333","GP_ID":"191563509"},{"APOAPSIS":"548.905","REF_FRAME":"TEME","OBJECT_ID":"2021-041AC","EPOCH":"2021-12-12T21:48:18.604224","TIME_SYSTEM":"UTC","EPHEMERIS_TYPE":"0","INCLINATION":"53.0560","ARG_OF_PERICENTER":"70.1376","SITE":"AFETR","COUNTRY_CODE":"US","PERIAPSIS":"545.558","MEAN_MOTION_DOT":"-0.00001074","LAUNCH_DATE":"2021-05-15","ECCENTRICITY":"0.00024160","MEAN_MOTION_DDOT":"0.0000000000000","OBJECT_NAME":"STARLINK-2233","OBJECT_TYPE":"PAYLOAD","SEMIMAJOR_AXIS":"6925.367","TLE_LINE1":"1 48579U 21041AC  21346.90854866 -.00001074  00000-0 -53169-4 0  9995","ELEMENT_SET_NO":"999","GP_ID":"191588150","CLASSIFICATION_TYPE":"U","TLE_LINE2":"2 48579  53.0560 239.8844 0002416  70.1376 289.9873 15.06394118 31917","MEAN_ELEMENT_THEORY":"SGP4","BSTAR":"-0.00005316900000","DECAY_DATE":null,"RCS_SIZE":"LARGE","PERIOD":"95.593","NORAD_CAT_ID":"48579","CENTER_NAME":"EARTH","REV_AT_EPOCH":"3191","RA_OF_ASC_NODE":"239.8844","FILE":"3238376","MEAN_MOTION":"15.06394118","MEAN_ANOMALY":"289.9873"},{"TIME_SYSTEM":"UTC","EPOCH":"2021-12-12T22:00:01.999584","REF_FRAME":"TEME","OBJECT_ID":"2021-041AD","APOAPSIS":"549.613","SITE":"AFETR","ARG_OF_PERICENTER":"72.1093","EPHEMERIS_TYPE":"0","INCLINATION":"53.0544","PERIAPSIS":"544.840","MEAN_MOTION_DOT":"-0.00014008","COUNTRY_CODE":"US","ECCENTRICITY":"0.00034460","LAUNCH_DATE":"2021-05-15","OBJECT_TYPE":"PAYLOAD","OBJECT_NAME":"STARLINK-2234","MEAN_MOTION_DDOT":"0.0000000000000","CLASSIFICATION_TYPE":"U","TLE_LINE2":"2 48580  53.0544 214.8438 0003446  72.1093 154.7800 15.06395761  3570","SEMIMAJOR_AXIS":"6925.362","TLE_LINE1":"1 48580U 21041AD  21346.91668981 -.00014008  00000-0 -92329-3 0  9990","ELEMENT_SET_NO":"999","GP_ID":"191589066","RA_OF_ASC_NODE":"214.8438","FILE":"3238376","REV_AT_EPOCH":"357","NORAD_CAT_ID":"48580","CENTER_NAME":"EARTH","BSTAR":"-0.00092329000000","MEAN_ELEMENT_THEORY":"SGP4","DECAY_DATE":null,"RCS_SIZE":"LARGE","PERIOD":"95.592","MEAN_ANOMALY":"154.7800","MEAN_MOTION":"15.06395761"},{"REV_AT_EPOCH":"359","RA_OF_ASC_NODE":"204.7816","FILE":"3238376","MEAN_ELEMENT_THEORY":"SGP4","BSTAR":"-0.00079981000000","DECAY_DATE":null,"PERIOD":"95.593","RCS_SIZE":"LARGE","NORAD_CAT_ID":"48581","CENTER_NAME":"EARTH","MEAN_ANOMALY":"351.5928","MEAN_MOTION":"15.06387841","OBJECT_NAME":"STARLINK-2235","MEAN_MOTION_DDOT":"0.0000000000000","OBJECT_TYPE":"PAYLOAD","SEMIMAJOR_AXIS":"6925.386","TLE_LINE1":"1 48581U 21041AE  21346.91668981 -.00012171  00000-0 -79981-3 0  9999","ELEMENT_SET_NO":"999","GP_ID":"191589250","TLE_LINE2":"2 48581  53.0626 204.7816 0001551  90.3300 351.5928 15.06387841  3598","CLASSIFICATION_TYPE":"U","PERIAPSIS":"546.177","MEAN_MOTION_DOT":"-0.00012171","COUNTRY_CODE":"US","ECCENTRICITY":"0.00015510","LAUNCH_DATE":"2021-05-15","EPOCH":"2021-12-12T22:00:01.999584","TIME_SYSTEM":"UTC","APOAPSIS":"548.325","REF_FRAME":"TEME","OBJECT_ID":"2021-041AE","EPHEMERIS_TYPE":"0","INCLINATION":"53.0626","ARG_OF_PERICENTER":"90.3300","SITE":"AFETR"},{"ECCENTRICITY":"0.00023510","LAUNCH_DATE":"2021-05-15","MEAN_MOTION_DOT":"-0.00003607","PERIAPSIS":"545.646","COUNTRY_CODE":"US","SITE":"AFETR","ARG_OF_PERICENTER":"70.5519","INCLINATION":"53.0520","EPHEMERIS_TYPE":"0","TIME_SYSTEM":"UTC","EPOCH":"2021-12-12T22:00:01.999584","OBJECT_ID":"2021-041AF","REF_FRAME":"TEME","APOAPSIS":"548.902","MEAN_ANOMALY":"191.3809","MEAN_MOTION":"15.06380200","FILE":"3238376","RA_OF_ASC_NODE":"204.8386","REV_AT_EPOCH":"357","CENTER_NAME":"EARTH","NORAD_CAT_ID":"48582","RCS_SIZE":"LARGE","DECAY_DATE":null,"PERIOD":"95.593","MEAN_ELEMENT_THEORY":"SGP4","BSTAR":"-0.00022349000000","CLASSIFICATION_TYPE":"U","TLE_LINE2":"2 48582  53.0520 204.8386 0002351  70.5519 191.3809 15.06380200  3574","GP_ID":"191588342","TLE_LINE1":"1 48582U 21041AF  21346.91668981 -.00003607  00000-0 -22349-3 0  9990","SEMIMAJOR_AXIS":"6925.409","ELEMENT_SET_NO":"999","OBJECT_TYPE":"PAYLOAD","OBJECT_NAME":"STARLINK-2236","MEAN_MOTION_DDOT":"0.0000000000000"}];
